BEIDOU-2 IGSO-5         
1 37948U 11073A   26183.72937883 -.00000128  00000+0  00000+0 0  9990
2 37948  47.6496 271.3544 0114527 222.0502 141.5350  1.00270596 53296
LUCH-5A                 
1 37951U 11074B   26197.47073468 -.00000064  00000+0  00000+0 0  9991
2 37951   8.8263  73.3753 0002671  60.7022 136.6829  1.00273307 53348
BEIDOU-2 G5             
1 38091U 12008A   26197.56641736  .00000045  00000+0  00000+0 0  9992
2 38091   3.6450  69.5061 0007298 268.4859 218.9691  1.00270681 52666
BEIDOU-2 M3             
1 38250U 12018A   26197.18445449 -.00000076  00000+0  00000+0 0  9996
2 38250  55.7311 303.8981 0020967 272.3426  87.4471  1.86229704 96481
BEIDOU-2 M4             
1 38251U 12018B   26197.11680304 -.00000075  00000+0  00000+0 0  9990
2 38251  55.6311 303.1118 0012128 272.2948  87.5971  1.86229279 96487
SES-5                   
1 38652U 12036A   26197.55593065  .00000023  00000+0  00000+0 0  9992
2 38652   0.0440 324.1774 0001984 148.5704  26.7479  1.00271630 44758
BEIDOU-2 M6             
1 38775U 12050B   26196.82639704 -.00000044  00000+0  00000+0 0  9998
2 38775  56.5693  61.9476 0012890   1.6971 358.3817  1.86230913 93845
GSAT-10                 
1 38779U 12051B   26197.62274123 -.00000175  00000+0  00000+0 0  9997
2 38779   0.0874 264.5223 0007454 189.8204 147.2878  1.00272787 50399
NAVSTAR 67 (USA 239)    
1 38833U 12053A   26195.73730407  .00000002  00000+0  00000+0 0  9990
2 38833  53.5896 142.4706 0181992  66.2134 295.6400  2.00567894 99992
GSAT0103 (GALILEO-FM3)  
1 38857U 12055A   26197.21850469 -.00000026  00000+0  00000+0 0  9991
2 38857  55.8227 100.7486 0003593 314.9576  45.0469  1.70473424 85501
BEIDOU-2 G6             
1 38953U 12059A   26197.64654881 -.00000188  00000+0  00000+0 0  9998
2 38953   4.4937  73.1999 0008718 327.2067 210.8192  1.00273451 50209
LUCH-5B                 
1 38977U 12061A   26197.40918568 -.00000152  00000+0  00000+0 0  9997
2 38977  10.5455  49.5874 0003902 147.8144 227.8647  1.00270317 49905
COSMOS 2485 [GLONASS-M] 
1 39155U 13019A   26196.06559575 -.00000009  00000+0  00000+0 0  9991
2 39155  65.4351  72.6696 0022653 231.1274 128.7466  2.13103174102877
NAVSTAR 68 (USA 242)    
1 39166U 13023A   26197.59935963 -.00000020  00000+0  00000+0 0  9999
2 39166  54.4817 267.7742 0141385  51.1132 310.2168  2.00563327 96471
IRNSS-1A                
1 39199U 13034A   26191.72043649  .00000047  00000+0  00000+0 0  9995
2 39199  35.7704  63.5328 0017567 183.4462 356.2994  1.00281941 47601
NAVSTAR 69 (USA 248)    
1 39533U 14008A   26196.60401446  .00000011  00000+0  00000+0 0  9995
2 39533  53.6578 148.1607 0084090 231.5482 127.6545  2.00561577 90251
ASTRA 5B                
1 39617U 14011B   26197.55974399  .00000126  00000+0  00000+0 0  9996
2 39617   0.0739 303.4652 0001909 179.9988  35.8977  1.00268771 44964
COSMOS 2492 [GLONASS-M] 
1 39620U 14012A   26195.55517278 -.00000062  00000+0  00000+0 0  9998
2 39620  65.2800 313.0063 0010322 317.7862  42.1441  2.13103205 95828
IRNSS-1B                
1 39635U 14017A   26196.71042329  .00000127  00000+0  00000+0 0  9999
2 39635  28.8748 239.9111 0022284 191.7753 172.7664  1.00275936 45085
LUCH-5V                 
1 39727U 14023A   26197.63358613 -.00000282  00000+0  00000+0 0  9999
2 39727   5.2034  69.4331 0002082  85.2545 102.5930  1.00273132 44659
NAVSTAR 70 (USA 251)    
1 39741U 14026A   26197.37869717 -.00000096  00000+0  00000+0 0  9994
2 39741  56.4825 330.3814 0038146 325.7541  33.9985  2.00558803 89125
COSMOS 2500 [GLONASS-M] 
1 40001U 14032A   26196.19383985 -.00000061  00000+0  00000+0 0  9991
2 40001  65.2146 312.7295 0008262 190.4247 169.5708  2.13105781 94057
NAVSTAR 71 (USA 256)    
1 40105U 14045A   26195.97463324 -.00000025  00000+0  00000+0 0  9991
2 40105  55.3710  87.3578 0034406 118.3743 242.0239  2.00560212 86638
GSAT0201 (GALILEO 5)    
1 40128U 14050A   26196.44416801 -.00000031  00000+0  00000+0 0  9990
2 40128  48.8437 272.2762 1678655 180.5299 179.3301  1.85519399 78842
GSAT0202 (GALILEO 6)    
1 40129U 14050B   26195.08266193 -.00000018  00000+0  00000+0 0  9992
2 40129  48.8629 271.4179 1679589 181.1559 178.4672  1.85520425 80983
IRNSS-1C                
1 40269U 14061A   26196.83150177 -.00000176  00000+0  00000+0 0  9992
2 40269   6.5880  88.3869 0022069   5.5373 222.1370  1.00272233 42973
NAVSTAR 72 (USA 258)    
1 40294U 14068A   26196.84010090 -.00000072  00000+0  00000+0 0  9992
2 40294  57.0073  29.8518 0067414  72.3241 288.4563  2.00553234 85785
COSMOS 2501 [GLONASS-K] 
1 40315U 14075A   26195.04843601  .00000065  00000+0  00000+0 0  9998
2 40315  63.6185 189.4424 0022586 212.6579 147.2095  2.13101105 90428
NAVSTAR 73 (USA 260)    
1 40534U 15013A   26197.48021407  .00000040  00000+0  00000+0 0  9999
2 40534  53.1660 202.9660 0110408  40.3942 320.4327  2.00549572 82410
GSAT0203 (GALILEO 7)    
1 40544U 15017A   26195.78217272 -.00000099  00000+0  00000+0 0  9997
2 40544  56.7770 340.8444 0002640 255.9596 103.9964  1.70476177 69671
GSAT0204 (GALILEO 8)    
1 40545U 15017B   26196.03804107 -.00000100  00000+0  00000+0 0  9999
2 40545  56.7833 340.8561 0002805 234.5634 125.3958  1.70475668 32722
